{"type": "FeatureCollection", "features": [ {"type": "Feature", "properties": {"norad_id": 30121, "name": "FENGYUN 1C DEB", "group": "fengyun-1c-debris", "lat": 77.28985240552313, "lon": -71.99661708929438, "alt_km": 751.891723033872, "timestamp": "2025-12-07T16:44:04.185273+00:00", "meta": {"OBJECT_NAME": "FENGYUN 1C DEB", "OBJECT_ID": "1999-025SA", "EPOCH": "2025-12-06T19:28:36.463296", "MEAN_MOTION": 14.39881475, "ECCENTRICITY": 0.00316279, "INCLINATION": 102.1649, "RA_OF_ASC_NODE": 359.7641, "ARG_OF_PERICENTER": 180.0611, "MEAN_ANOMALY": 357.6212, "EPHEMERIS_TYPE": 0, "CLASSIFICATION_TYPE": "U", "NORAD_CAT_ID": 30121, "ELEMENT_SET_NO": 999, "REV_AT_EPOCH": 97454, "BSTAR": 0.0036770135, "MEAN_MOTION_DOT": 0.0001157, "MEAN_MOTION_DDOT": 0}, "tle": {"line1": "1 30121U 99025SA  25340.81153314  .00011570  00000+0  36770-2 0  9990", "line2": "2 30121 102.1649 359.7641 0031627 180.0611 357.6212 14.39881475974548"}}, "geometry": {"type": "Point", "coordinates": [-71.99661708929438, 77.28985240552313]}}, {"type": "Feature", "properties": {"norad_id": 30123, "name": "FENGYUN 1C DEB", "group": "fengyun-1c-debris", "lat": 58.78187910612098, "lon": 114.78073475646461, "alt_km": 644.1354992615015, "timestamp": "2025-12-07T16:44:04.185283+00:00", "meta": {"OBJECT_NAME": "FENGYUN 1C DEB", "OBJECT_ID": "1999-025SC", "EPOCH": "2025-12-06T06:30:17.515584", "MEAN_MOTION": 14.25891995, "ECCENTRICITY": 0.02304438, "INCLINATION": 96.9264, "RA_OF_ASC_NODE": 282.0805, "ARG_OF_PERICENTER": 104.4171, "MEAN_ANOMALY": 258.2708, "EPHEMERIS_TYPE": 0, "CLASSIFICATION_TYPE": "U", "NORAD_CAT_ID": 30123, "ELEMENT_SET_NO": 999, "REV_AT_EPOCH": 97155, "BSTAR": 0.0022399234, "MEAN_MOTION_DOT": 7.027e-05, "MEAN_MOTION_DDOT": 0}, "tle": {"line1": "1 30123U 99025SC  25340.27103606  .00007027  00000+0  22399-2 0  9995", "line2": "2 30123  96.9264 282.0805 0230443 104.4171 258.2708 14.25891995971558"}}, "geometry": {"type": "Point", "coordinates": [114.78073475646461, 58.78187910612098]}}, {"type": "Feature", "properties": {"norad_id": 30124, "name": "FENGYUN 1C DEB", "group": "fengyun-1c-debris", "lat": -73.18841865121948, "lon": -176.71147649646988, "alt_km": 925.9883258778191, "timestamp": "2025-12-07T16:44:04.185293+00:00", "meta": {"OBJECT_NAME": "FENGYUN 1C DEB", "OBJECT_ID": "1999-025SD", "EPOCH": "2025-12-06T18:00:54.420768", "MEAN_MOTION": 14.14198085, "ECCENTRICITY": 0.01436143, "INCLINATION": 99.1316, "RA_OF_ASC_NODE": 34.4851, "ARG_OF_PERICENTER": 122.6205, "MEAN_ANOMALY": 355.2209, "EPHEMERIS_TYPE": 0, "CLASSIFICATION_TYPE": "U", "NORAD_CAT_ID": 30124, "ELEMENT_SET_NO": 999, "REV_AT_EPOCH": 96830, "BSTAR": 0.0017520637, "MEAN_MOTION_DOT": 3.645e-05, "MEAN_MOTION_DDOT": 0}, "tle": {"line1": "1 30124U 99025SD  25340.75062987  .00003645  00000+0  17521-2 0  9998", "line2": "2 30124  99.1316  34.4851 0143614 122.6205 355.2209 14.14198085968306"}}, "geometry": {"type": "Point", "coordinates": [-176.71147649646988, -73.18841865121948]}}, {"type": "Feature", "properties": {"norad_id": 30125, "name": "FENGYUN 1C DEB", "group": "fengyun-1c-debris", "lat": -70.99810706506763, "lon": -125.94559937493784, "alt_km": 883.0284373826335, "timestamp": "2025-12-07T16:44:04.185303+00:00", "meta": {"OBJECT_NAME": "FENGYUN 1C DEB", "OBJECT_ID": "1999-025SE", "EPOCH": "2025-12-06T16:25:49.159200", "MEAN_MOTION": 14.22604913, "ECCENTRICITY": 0.03427668, "INCLINATION": 98.7241, "RA_OF_ASC_NODE": 79.5302, "ARG_OF_PERICENTER": 1.7486, "MEAN_ANOMALY": 111.7068, "EPHEMERIS_TYPE": 0, "CLASSIFICATION_TYPE": "U", "NORAD_CAT_ID": 30125, "ELEMENT_SET_NO": 999, "REV_AT_EPOCH": 96835, "BSTAR": 0.0011811538, "MEAN_MOTION_DOT": 4.784e-05, "MEAN_MOTION_DDOT": 0}, "tle": {"line1": "1 30125U 99025SE  25340.68459675  .00004784  00000+0  11812-2 0  9997", "line2": "2 30125  98.7241  79.5302 0342766   1.7486 111.7068 14.22604913968351"}}, "geometry": {"type": "Point", "coordinates": [-125.94559937493784, -70.99810706506763]}}, {"type": "Feature", "properties": {"norad_id": 30127, "name": "FENGYUN 1C DEB", "group": "fengyun-1c-debris", "lat": 27.190134080665363, "lon": -165.82472487557587, "alt_km": 739.9943846046963, "timestamp": "2025-12-07T16:44:04.185314+00:00", "meta": {"OBJECT_NAME": "FENGYUN 1C DEB", "OBJECT_ID": "1999-025SG", "EPOCH": "2025-12-06T13:53:08.963808", "MEAN_MOTION": 14.37864665, "ECCENTRICITY": 0.00847649, "INCLINATION": 98.2064, "RA_OF_ASC_NODE": 197.3582, "ARG_OF_PERICENTER": 97.6708, "MEAN_ANOMALY": 263.4117, "EPHEMERIS_TYPE": 0, "CLASSIFICATION_TYPE": "U", "NORAD_CAT_ID": 30127, "ELEMENT_SET_NO": 999, "REV_AT_EPOCH": 97147, "BSTAR": 0.0039207737, "MEAN_MOTION_DOT": 0.00012307, "MEAN_MOTION_DDOT": 0}, "tle": {"line1": "1 30127U 99025SG  25340.57857597  .00012307  00000+0  39208-2 0  9991", "line2": "2 30127  98.2064 197.3582 0084764  97.6708 263.4117 14.37864665971477"}}, "geometry": {"type": "Point", "coordinates": [-165.82472487557587, 27.190134080665363]}}, {"type": "Feature", "properties": {"norad_id": 30128, "name": "FENGYUN 1C DEB", "group": "fengyun-1c-debris", "lat": -40.54037169939361, "lon": 155.3194996110624, "alt_km": 731.3998254649714, "timestamp": "2025-12-07T16:44:04.185324+00:00", "meta": {"OBJECT_NAME": "FENGYUN 1C DEB", "OBJECT_ID": "1999-025SH", "EPOCH": "2025-12-06T23:22:10.450848", "MEAN_MOTION": 14.459562, "ECCENTRICITY": 0.01074494, "INCLINATION": 96.9796, "RA_OF_ASC_NODE": 340.7377, "ARG_OF_PERICENTER": 143.0114, "MEAN_ANOMALY": 272.4982, "EPHEMERIS_TYPE": 0, "CLASSIFICATION_TYPE": "U", "NORAD_CAT_ID": 30128, "ELEMENT_SET_NO": 999, "REV_AT_EPOCH": 97228, "BSTAR": 0.0037058327, "MEAN_MOTION_DOT": 0.00014156, "MEAN_MOTION_DDOT": 0}, "tle": {"line1": "1 30128U 99025SH  25340.97373207  .00014156  00000+0  37058-2 0  9992", "line2": "2 30128  96.9796 340.7377 0107449 143.0114 272.4982 14.45956200972280"}}, "geometry": {"type": "Point", "coordinates": [155.3194996110624, -40.54037169939361]}}, {"type": "Feature", "properties": {"norad_id": 30129, "name": "FENGYUN 1C DEB", "group": "fengyun-1c-debris", "lat": -79.01910654883027, "lon": 57.50108333328028, "alt_km": 1020.3898227629688, "timestamp": "2025-12-07T16:44:04.185334+00:00", "meta": {"OBJECT_NAME": "FENGYUN 1C DEB", "OBJECT_ID": "1999-025SJ", "EPOCH": "2025-12-06T19:13:32.547360", "MEAN_MOTION": 14.0156268, "ECCENTRICITY": 0.0188692, "INCLINATION": 98.0264, "RA_OF_ASC_NODE": 283.3628, "ARG_OF_PERICENTER": 109.2026, "MEAN_ANOMALY": 313.0335, "EPHEMERIS_TYPE": 0, "CLASSIFICATION_TYPE": "U", "NORAD_CAT_ID": 30129, "ELEMENT_SET_NO": 999, "REV_AT_EPOCH": 96395, "BSTAR": 0.0007202525, "MEAN_MOTION_DOT": 1.239e-05, "MEAN_MOTION_DDOT": 0}, "tle": {"line1": "1 30129U 99025SJ  25340.80107115  .00001239  00000+0  72025-3 0  9990", "line2": "2 30129  98.0264 283.3628 0188692 109.2026 313.0335 14.01562680963955"}}, "geometry": {"type": "Point", "coordinates": [57.50108333328028, -79.01910654883027]}}, {"type": "Feature", "properties": {"norad_id": 30131, "name": "FENGYUN 1C DEB", "group": "fengyun-1c-debris", "lat": -23.28710810716528, "lon": 77.33861939220074, "alt_km": 884.4904946839788, "timestamp": "2025-12-07T16:44:04.185375+00:00", "meta": {"OBJECT_NAME": "FENGYUN 1C DEB", "OBJECT_ID": "1999-025SL", "EPOCH": "2025-12-06T19:27:22.575744", "MEAN_MOTION": 14.21081382, "ECCENTRICITY": 0.00832216, "INCLINATION": 99.0754, "RA_OF_ASC_NODE": 72.4834, "ARG_OF_PERICENTER": 175.3407, "MEAN_ANOMALY": 307.6883, "EPHEMERIS_TYPE": 0, "CLASSIFICATION_TYPE": "U", "NORAD_CAT_ID": 30131, "ELEMENT_SET_NO": 999, "REV_AT_EPOCH": 96604, "BSTAR": 0.0047345664, "MEAN_MOTION_DOT": 0.00010614, "MEAN_MOTION_DDOT": 0}, "tle": {"line1": "1 30131U 99025SL  25340.81067796  .00010614  00000+0  47346-2 0  9998", "line2": "2 30131  99.0754  72.4834 0083221 175.3407 307.6883 14.21081382966045"}}, "geometry": {"type": "Point", "coordinates": [77.33861939220074, -23.28710810716528]}}, {"type": "Feature", "properties": {"norad_id": 30132, "name": "FENGYUN 1C DEB", "group": "fengyun-1c-debris", "lat": 78.38730486520764, "lon": -120.14549970675927, "alt_km": 831.9122732832511, "timestamp": "2025-12-07T16:44:04.185387+00:00", "meta": {"OBJECT_NAME": "FENGYUN 1C DEB", "OBJECT_ID": "1999-025SM", "EPOCH": "2025-12-06T19:59:42.272160", "MEAN_MOTION": 13.94839821, "ECCENTRICITY": 0.01057403, "INCLINATION": 99.5766, "RA_OF_ASC_NODE": 294.1948, "ARG_OF_PERICENTER": 65.4958, "MEAN_ANOMALY": 0.605, "EPHEMERIS_TYPE": 0, "CLASSIFICATION_TYPE": "U", "NORAD_CAT_ID": 30132, "ELEMENT_SET_NO": 999, "REV_AT_EPOCH": 96007, "BSTAR": 0.00081350396, "MEAN_MOTION_DOT": 1.097e-05, "MEAN_MOTION_DDOT": 0}, "tle": {"line1": "1 30132U 99025SM  25340.83312815  .00001097  00000+0  81350-3 0  9995", "line2": "2 30132  99.5766 294.1948 0105740  65.4958   0.6050 13.94839821960075"}}, "geometry": {"type": "Point", "coordinates": [-120.14549970675927, 78.38730486520764]}}, {"type": "Feature", "properties": {"norad_id": 30133, "name": "FENGYUN 1C DEB", "group": "fengyun-1c-debris", "lat": 64.64338692749197, "lon": -13.21836247831877, "alt_km": 923.1286938291778, "timestamp": "2025-12-07T16:44:04.185397+00:00", "meta": {"OBJECT_NAME": "FENGYUN 1C DEB", "OBJECT_ID": "1999-025SN", "EPOCH": "2025-12-06T23:40:54.456096", "MEAN_MOTION": 14.06627701, "ECCENTRICITY": 0.00856046, "INCLINATION": 98.3241, "RA_OF_ASC_NODE": 148.1327, "ARG_OF_PERICENTER": 276.7904, "MEAN_ANOMALY": 201.523, "EPHEMERIS_TYPE": 0, "CLASSIFICATION_TYPE": "U", "NORAD_CAT_ID": 30133, "ELEMENT_SET_NO": 999, "REV_AT_EPOCH": 96297, "BSTAR": 0.002533741, "MEAN_MOTION_DOT": 4.305e-05, "MEAN_MOTION_DDOT": 0}, "tle": {"line1": "1 30133U 99025SN  25340.98674139  .00004305  00000+0  25337-2 0  9999", "line2": "2 30133  98.3241 148.1327 0085604 276.7904 201.5230 14.06627701962973"}}, "geometry": {"type": "Point", "coordinates": [-13.21836247831877, 64.64338692749197]}}]}